[{"OBJECT_NAME":"STARLINK-34493","OBJECT_ID":"2025-133A","EPOCH":"2026-03-09T13:10:09.927264","MEAN_MOTION":15.3019727,"ECCENTRICITY":0.000123,"INCLINATION":53.1574,"RA_OF_ASC_NODE":117.6824,"ARG_OF_PERICENTER":79.1032,"MEAN_ANOMALY":281.0107,"EPHEMERIS_TYPE":0,"CLASSIFICATION_TYPE":"U","NORAD_CAT_ID":64472,"ELEMENT_SET_NO":999,"REV_AT_EPOCH":4116,"BSTAR":0.0012723,"MEAN_MOTION_DOT":0.0003751,"MEAN_MOTION_DDOT":0},{"OBJECT_NAME":"TRANSPORTER-1 OBJECT L","OBJECT_ID":"2021-006L","EPOCH":"2026-03-09T22:38:42.795168","MEAN_MOTION":15.33192932,"ECCENTRICITY":0.00114726,"INCLINATION":97.2368,"RA_OF_ASC_NODE":117.6447,"ARG_OF_PERICENTER":180.5165,"MEAN_ANOMALY":179.6068,"EPHEMERIS_TYPE":0,"CLASSIFICATION_TYPE":"U","NORAD_CAT_ID":47423,"ELEMENT_SET_NO":999,"REV_AT_EPOCH":28445,"BSTAR":0.00025636794,"MEAN_MOTION_DOT":8.162e-5,"MEAN_MOTION_DDOT":0}]
